<?xml version="1.0" encoding="UTF-8"?>
<kml xmlns="http://www.opengis.net/kml/2.2">
  <Document>
    <name>Caesarea</name>
    <Style id="poly-FFD600-5401-0-nodesc-normal">
      <LineStyle>
        <color>ff00d6ff</color>
        <width>5.0</width>
      </LineStyle>
      <PolyStyle>
        <color>0000d6ff</color>
        <fill>1</fill>
        <outline>1</outline>
      </PolyStyle>
      <BalloonStyle>
        <text><![CDATA[<h3>$[name]</h3>]]></text>
      </BalloonStyle>
    </Style>
    <Style id="poly-FFD600-5401-0-nodesc-highlight">
      <LineStyle>
        <color>ff00d6ff</color>
        <width>8.1015</width>
      </LineStyle>
      <PolyStyle>
        <color>0000d6ff</color>
        <fill>1</fill>
        <outline>1</outline>
      </PolyStyle>
      <BalloonStyle>
        <text><![CDATA[<h3>$[name]</h3>]]></text>
      </BalloonStyle>
    </Style>
    <StyleMap id="poly-FFD600-5401-0-nodesc">
      <Pair>
        <key>normal</key>
        <styleUrl>#poly-FFD600-5401-0-nodesc-normal</styleUrl>
      </Pair>
      <Pair>
        <key>highlight</key>
        <styleUrl>#poly-FFD600-5401-0-nodesc-highlight</styleUrl>
      </Pair>
    </StyleMap>
    <Placemark>
      <name>Caesarea </name>
      <styleUrl>#poly-FFD600-5401-0-nodesc</styleUrl>
      <Polygon>
        <outerBoundaryIs>
          <LinearRing>
            <tessellate>1</tessellate>
            <coordinates>
              34.9007609,32.5320961,0
              34.9000702,32.5292584,0
              34.8989544,32.5259295,0
              34.8980961,32.524048,0
              34.8979245,32.5228177,0
              34.8985253,32.520357,0
              34.8970662,32.5161593,0
              34.8956929,32.5130471,0
              34.895607,32.5101519,0
              34.8928605,32.50675,0
              34.8912297,32.5042165,0
              34.8895989,32.5015382,0
              34.890543,32.4998009,0
              34.8884831,32.4980635,0
              34.8895131,32.4969053,0
              34.8894575,32.4939899,0
              34.8883846,32.4929764,0
              34.8887279,32.4916009,0
              34.8882559,32.4905873,0
              34.8892429,32.4891032,0
              34.8889425,32.4860624,0
              34.8884059,32.4829312,0
              34.8876764,32.4821348,0
              34.8876871,32.4810125,0
              34.8876334,32.480569,0
              34.8873867,32.479854,0
              34.8870326,32.4792386,0
              34.8871077,32.4787498,0
              34.8869575,32.4783426,0
              34.8864962,32.4777905,0
              34.8861207,32.4772293,0
              34.8874054,32.4770423,0
              34.8934565,32.4769518,0
              34.8949156,32.4756485,0
              34.8969112,32.4741641,0
              34.8978185,32.474006,0
              34.8982047,32.474015,0
              34.8989987,32.474187,0
              34.8998248,32.4745219,0
              34.9004256,32.4749563,0
              34.9013805,32.4755809,0
              34.9022173,32.4761873,0
              34.9028825,32.4762597,0
              34.9035799,32.4759701,0
              34.9037086,32.4753274,0
              34.9038713,32.4746804,0
              34.9052875,32.4721823,0
              34.9058454,32.4703901,0
              34.9079697,32.4710418,0
              34.9092266,32.4710911,0
              34.9099991,32.4699325,0
              34.9118874,32.4690997,0
              34.9135182,32.4697514,0
              34.9141619,32.4718152,0
              34.9167368,32.4717066,0
              34.9189684,32.4710911,0
              34.9207279,32.4711635,0
              34.9207279,32.4700773,0
              34.920736,32.4638898,0
              34.9219162,32.4638355,0
              34.9228898,32.4632403,0
              34.9239842,32.4629144,0
              34.9250785,32.4629144,0
              34.926087,32.4629325,0
              34.9265591,32.4625342,0
              34.9273101,32.4625342,0
              34.9285332,32.4622445,0
              34.9295632,32.4621178,0
              34.9309579,32.4624256,0
              34.932417,32.4629144,0
              34.9336187,32.4626972,0
              34.9340693,32.4629868,0
              34.9383179,32.4634214,0
              34.9403778,32.462842,0
              34.9409786,32.4621902,0
              34.9414078,32.4611401,0
              34.9423948,32.4591486,0
              34.9420944,32.4609591,0
              34.9424807,32.4629506,0
              34.9436823,32.4642904,0
              34.9468401,32.4689181,0
              34.9539885,32.4796072,0
              34.9543318,32.4829378,0
              34.9541602,32.4869922,0
              34.9534726,32.4910205,0
              34.9525223,32.4996383,0
              34.9493895,32.4988782,0
              34.9487458,32.4996021,0
              34.9470935,32.5002717,0
              34.9422655,32.500688,0
              34.9391756,32.5009956,0
              34.9387894,32.5007784,0
              34.9378453,32.5007061,0
              34.9366222,32.5008689,0
              34.9342189,32.5006699,0
              34.9327957,32.5008299,0
              34.9300491,32.501409,0
              34.929105,32.5029292,0
              34.9215519,32.4849755,0
              34.9202644,32.4801245,0
              34.9164879,32.4813554,0
              34.912883,32.4843239,0
              34.9177753,32.490333,0
              34.9182903,32.4944595,0
              34.9157813,32.5003231,0
              34.9120047,32.5097332,0
              34.9117473,32.511977,0
              34.9129489,32.5171157,0
              34.9153521,32.5300699,0
              34.9007609,32.5320961,0
            </coordinates>
          </LinearRing>
        </outerBoundaryIs>
      </Polygon>
    </Placemark>
  </Document>
</kml>
